PERSEUS-M1              
1 40039U 14033AF  26138.33035959  .00001402  00000+0  13186-3 0  9992
2 40039  97.9634  81.9777 0012724  42.8372 317.3837 14.95523176646176
POLYITAN-1              
1 40042U 14033AJ  26138.02043936  .00012383  00000+0  40156-3 0  9993
2 40042  98.0958 161.4533 0005638 243.4651 116.6011 15.32137260648971
TIGRISAT                
1 40043U 14033AK  26138.40243642  .00001375  00000+0  16395-3 0  9999
2 40043  97.7798 289.1061 0049726 170.8027 189.4111 14.85021879641203
AEROCUBE 6A             
1 40045U 14033AM  26138.36418155  .00003436  00000+0  29317-3 0  9997
2 40045  97.7222 305.6431 0040178 114.4002 246.1421 14.97752106642158
AEROCUBE 6B             
1 40046U 14033AN  26138.46206281  .00003972  00000+0  32628-3 0  9998
2 40046  97.7175 305.4682 0038503 107.4236 253.1202 14.99173041642301
CANX-4                  
1 40055U 14034C   26138.22637963  .00000566  00000+0  79924-4 0  9995
2 40055  98.3159  12.4349 0014077 105.7344 254.5421 14.81203571640091
CANX-5                  
1 40056U 14034D   26138.09005325  .00000583  00000+0  82172-4 0  9990
2 40056  98.3163  12.3353 0014071 106.3261 253.9499 14.81220629630887
UKUBE-1                 
1 40074U 14037F   26138.47941123  .00005423  00000+0  31135-3 0  9990
2 40074  98.4239 138.6440 0000364 131.9881 228.1378 15.13028346644066
BRITE-PL2 (HEWELIUSZ)   
1 40119U 14049B   26138.31178671  .00001301  00000+0  12594-3 0  9995
2 40119  97.9065 250.0897 0013576 203.4228 156.6375 14.94468289636987
AEROCUBE 5C             
1 40965U 15058B   26138.33055725  .00002012  00000+0  18686-3 0  9999
2 40965  64.7682 355.4611 0129920  75.0051 286.5399 14.91270598361205
AEROCUBE 7              
1 40966U 15058C   26138.54530824  .00002919  00000+0  24206-3 0  9992
2 40966  64.7626 337.6442 0119693  73.6037 287.8195 14.95478512361525
FOX-1A (AO-85)          
1 40967U 15058D   26138.10005874  .00002278  00000+0  21248-3 0  9998
2 40967  64.7765  12.4727 0129183  68.3958 293.0860 14.90778967109083
SINOD-D 1               
1 40968U 15058E   26137.32323242  .00003096  00000+0  25586-3 0  9992
2 40968  64.7761 355.5486 0117659  65.4694 295.8632 14.95649294112045
SNAP-3 ALICE            
1 40970U 15058G   26138.49457162  .00047791  00000+0  71693-3 0  9993
2 40970  64.7518 206.0509 0033235  27.2335 333.0541 15.53991643112260
LMRST-SAT               
1 40971U 15058H   26138.24906613  .00002096  00000+0  19788-3 0  9993
2 40971  64.7771   8.2915 0130952  70.3605 291.1585 14.90404641109094
SNAP-3 EDDIE            
1 40972U 15058J   26138.44300779  .00047195  00000+0  67812-3 0  9997
2 40972  64.7434 197.1657 0033667  30.9981 329.3140 15.55148925114398
PROPCUBE 3              
1 40973U 15058K   26138.02312329  .00002744  00000+0  23543-3 0  9990
2 40973  64.7689 346.7648 0123068  71.9360 289.5115 14.94037791110298
BISONSAT                
1 40974U 15058L   26138.47721280  .00006676  00000+0  33411-3 0  9993
2 40974  64.7603 269.6454 0078637  59.8780 301.0108 15.15548091111113
SNAP-3 JIMI             
1 40975U 15058M   26138.49643441  .00003767  00000+0  26739-3 0  9991
2 40975  64.7647 313.6885 0105058  67.7032 293.5184 15.01974279109769
PROPCUBE 1 (FLORA)      
1 40976U 15058N   26138.10929506  .00002137  00000+0  20931-3 0  9997
2 40976  64.7761  28.4429 0129745  72.6996 288.8262 14.89036393111785
SINOD-D 3               
1 40977U 15058P   26138.38439346  .00002747  00000+0  23996-3 0  9997
2 40977  64.7736   8.8679 0118237  70.0409 291.3394 14.93769393110302
HORYU-4                 
1 41340U 16012D   26138.55688317  .00131199  00000+0  67870-3 0  9999
2 41340  30.9887 293.6545 0004661  74.4764 285.6408 15.79552983566107
RAVAN                   
1 41849U 16067B   26138.40751051  .00027730  00000+0  46544-3 0  9993
2 41849  97.9935  24.6077 0007212 105.3374 254.8674 15.51749826523072
CELTEE 1                
1 41850U 16067C   26138.11289936  .00003514  00000+0  16988-3 0  9994
2 41850  98.0707   2.6307 0001550  56.8661 303.2721 15.19358584521311
OPTICUBE 04             
1 41851U 16067D   26138.31741837  .00001449  00000+0  94623-4 0  9998
2 41851  98.0727 349.0410 0014809 214.5355 145.4912 15.09520653520663
AEROCUBE 8D             
1 41852U 16067E   26138.35002546  .00004530  00000+0  19073-3 0  9999
2 41852  98.0716   6.2566 0002281 217.4113 142.6964 15.23941579521523
AEROCUBE 8C             
1 41853U 16067F   26138.18282984  .00004801  00000+0  20045-3 0  9999
2 41853  98.0589   3.3438 0005975 150.3894 209.7680 15.24178667521499
CORVUS BC2              
1 42846U 17042X   26138.36566117  .00001613  00000+0  11432-3 0  9997
2 42846  97.4040 300.8850 0012311 207.1063 152.9523 15.06086016482577
CORVUS BC1              
1 42847U 17042Y   26138.36365956  .00001510  00000+0  10679-3 0  9994
2 42847  97.4069 301.6776 0011849 182.5577 177.5592 15.06256630482600
MAKERSAT 0              
1 43016U 17073D   26138.38555918  .00014841  00000+0  41471-3 0  9993
2 43016  97.4666  20.6957 0110697  20.1590 340.3970 15.30759863461907
